YAOGAN-43 01G           
1 60464U 24148G   26068.44348481  .00010133  00000+0  35873-3 0  9993
2 60464  35.0006  62.0013 0007382 306.3543  53.6492 15.28332833 87004
STARLINK-33531          
1 63399U 25065A   26067.46542635  .00036571  00000+0  13310-2 0  9995
2 63399  43.0009 113.9152 0001204 281.0419  79.0297 15.27601157 52659
